STARLINK-35137          
1 65686U 25212L   25321.55314849  .00044420  00000+0  11131-2 0  9997
2 65686  53.1603 143.7427 0001495  91.5409 268.5767 15.39643936 10063
STARLINK-34856          
1 65687U 25212M   25321.91841303  .00030106  00000+0  10247-2 0  9991
2 65687  53.1586 144.6409 0001061  90.1988 269.9134 15.30193737 10085
STARLINK-34930          
1 65688U 25212N   25321.92790877  .00020986  00000+0  71894-3 0  9993
2 65688  53.1575 144.6991 0000883  99.1331 260.9770 15.30187064 10131
STARLINK-34875          
1 65689U 25212P   25321.88897144  .00028651  00000+0  97524-3 0  9999
2 65689  53.1614 145.1703 0000550 237.5221 122.5727 15.30216962 10124
STARLINK-34790          
1 65690U 25212Q   25321.88581159  .00038734  00000+0  13135-2 0  9995
2 65690  53.1573 145.1520 0001781  74.1948 285.9249 15.30190428 10070
STARLINK-34691          
1 65691U 25212R   25321.91013580  .00055004  00000+0  13748-2 0  9997
2 65691  53.1593 141.6994 0000894  79.1889 280.9216 15.39627923 10176
STARLINK-34825          
1 65692U 25212S   25321.93423663  .00024399  00000+0  83316-3 0  9999
2 65692  53.1616 144.7408 0000820 335.8409  24.2553 15.30201661 10122
STARLINK-35060          
1 65693U 25212T   25321.92870909  .00041645  00000+0  10454-2 0  9993
2 65693  53.1600 141.8189 0001028  81.6937 278.4185 15.39621350 10172
STARLINK-35204          
1 65694U 25212U   25321.94479329  .00026540  00000+0  90487-3 0  9999
2 65694  53.1572 144.8071 0000744  74.8012 285.3071 15.30204245 10145
STARLINK-35221          
1 65695U 25212V   25321.53285225  .00030982  00000+0  10528-2 0  9997
2 65695  53.1518 146.4987 0003381 106.4302 253.7070 15.30227874 10088
STARLINK-34734          
1 65696U 25212W   25321.91207933  .00047441  00000+0  16036-2 0  9998
2 65696  53.1603 144.5997 0000985  76.0936 284.0174 15.30202576 10136
STARLINK-35113          
1 65697U 25212X   25321.50963640  .00049067  00000+0  16569-2 0  9995
2 65697  53.1552 146.3522 0002052  80.7886 279.3347 15.30218973 10077
STARLINK-35090          
1 65698U 25212Y   25321.80888563  .00012732  00000+0  44154-3 0  9990
2 65698  53.1609 145.3811 0001337  92.1680 267.9474 15.30179496 10110
STARLINK-35086          
1 65699U 25212Z   25321.50869528  .00031706  00000+0  10773-2 0  9999
2 65699  53.1586 147.0618 0002594  86.7445 273.3852 15.30221039 10014
STARLINK-35101          
1 65700U 25212AA  25321.64554130  .00030974  00000+0  10541-2 0  9996
2 65700  53.1607 145.7784 0000564 142.3865 217.7175 15.30182270 10046
STARLINK-35046          
1 65701U 25212AB  25321.94373682  .00027623  00000+0  94122-3 0  9996
2 65701  53.1586 144.7996 0000762  62.2997 297.8081 15.30202802 10132
