[{"OBJECT_NAME":"STARLINK-35137","OBJECT_ID":"2025-212L","EPOCH":"2025-11-17T13:16:32.029536","MEAN_MOTION":15.39643936,"ECCENTRICITY":0.00014955,"INCLINATION":53.1603,"RA_OF_ASC_NODE":143.7427,"ARG_OF_PERICENTER":91.5409,"MEAN_ANOMALY":268.5767,"EPHEMERIS_TYPE":0,"CLASSIFICATION_TYPE":"U","NORAD_CAT_ID":65686,"ELEMENT_SET_NO":999,"REV_AT_EPOCH":1006,"BSTAR":0.0011131379,"MEAN_MOTION_DOT":0.0004442,"MEAN_MOTION_DDOT":0},{"OBJECT_NAME":"STARLINK-34856","OBJECT_ID":"2025-212M","EPOCH":"2025-11-17T22:02:30.885792","MEAN_MOTION":15.30193737,"ECCENTRICITY":0.0001061,"INCLINATION":53.1586,"RA_OF_ASC_NODE":144.6409,"ARG_OF_PERICENTER":90.1988,"MEAN_ANOMALY":269.9134,"EPHEMERIS_TYPE":0,"CLASSIFICATION_TYPE":"U","NORAD_CAT_ID":65687,"ELEMENT_SET_NO":999,"REV_AT_EPOCH":1008,"BSTAR":0.0010247,"MEAN_MOTION_DOT":0.00030106,"MEAN_MOTION_DDOT":0},{"OBJECT_NAME":"STARLINK-34930","OBJECT_ID":"2025-212N","EPOCH":"2025-11-17T22:16:11.317728","MEAN_MOTION":15.30187064,"ECCENTRICITY":8.83e-5,"INCLINATION":53.1575,"RA_OF_ASC_NODE":144.6991,"ARG_OF_PERICENTER":99.1331,"MEAN_ANOMALY":260.977,"EPHEMERIS_TYPE":0,"CLASSIFICATION_TYPE":"U","NORAD_CAT_ID":65688,"ELEMENT_SET_NO":999,"REV_AT_EPOCH":1013,"BSTAR":0.00071894,"MEAN_MOTION_DOT":0.00020986,"MEAN_MOTION_DDOT":0},{"OBJECT_NAME":"STARLINK-34875","OBJECT_ID":"2025-212P","EPOCH":"2025-11-17T21:20:07.132416","MEAN_MOTION":15.30216962,"ECCENTRICITY":5.5e-5,"INCLINATION":53.1614,"RA_OF_ASC_NODE":145.1703,"ARG_OF_PERICENTER":237.5221,"MEAN_ANOMALY":122.5727,"EPHEMERIS_TYPE":0,"CLASSIFICATION_TYPE":"U","NORAD_CAT_ID":65689,"ELEMENT_SET_NO":999,"REV_AT_EPOCH":1012,"BSTAR":0.00097524,"MEAN_MOTION_DOT":0.00028651,"MEAN_MOTION_DDOT":0},{"OBJECT_NAME":"STARLINK-34790","OBJECT_ID":"2025-212Q","EPOCH":"2025-11-17T21:15:34.121376","MEAN_MOTION":15.30190428,"ECCENTRICITY":0.0001781,"INCLINATION":53.1573,"RA_OF_ASC_NODE":145.152,"ARG_OF_PERICENTER":74.1948,"MEAN_ANOMALY":285.9249,"EPHEMERIS_TYPE":0,"CLASSIFICATION_TYPE":"U","NORAD_CAT_ID":65690,"ELEMENT_SET_NO":999,"REV_AT_EPOCH":1007,"BSTAR":0.0013135,"MEAN_MOTION_DOT":0.00038734,"MEAN_MOTION_DDOT":0},{"OBJECT_NAME":"STARLINK-34691","OBJECT_ID":"2025-212R","EPOCH":"2025-11-17T21:50:35.733120","MEAN_MOTION":15.39627923,"ECCENTRICITY":8.94e-5,"INCLINATION":53.1593,"RA_OF_ASC_NODE":141.6994,"ARG_OF_PERICENTER":79.1889,"MEAN_ANOMALY":280.9216,"EPHEMERIS_TYPE":0,"CLASSIFICATION_TYPE":"U","NORAD_CAT_ID":65691,"ELEMENT_SET_NO":999,"REV_AT_EPOCH":1017,"BSTAR":0.0013748,"MEAN_MOTION_DOT":0.00055004,"MEAN_MOTION_DDOT":0},{"OBJECT_NAME":"STARLINK-34825","OBJECT_ID":"2025-212S","EPOCH":"2025-11-17T22:25:18.044832","MEAN_MOTION":15.30201661,"ECCENTRICITY":8.2e-5,"INCLINATION":53.1616,"RA_OF_ASC_NODE":144.7408,"ARG_OF_PERICENTER":335.8409,"MEAN_ANOMALY":24.2553,"EPHEMERIS_TYPE":0,"CLASSIFICATION_TYPE":"U","NORAD_CAT_ID":65692,"ELEMENT_SET_NO":999,"REV_AT_EPOCH":1012,"BSTAR":0.00083316,"MEAN_MOTION_DOT":0.00024399,"MEAN_MOTION_DDOT":0},{"OBJECT_NAME":"STARLINK-35060","OBJECT_ID":"2025-212T","EPOCH":"2025-11-17T22:17:20.465376","MEAN_MOTION":15.3962135,"ECCENTRICITY":0.0001028,"INCLINATION":53.16,"RA_OF_ASC_NODE":141.8189,"ARG_OF_PERICENTER":81.6937,"MEAN_ANOMALY":278.4185,"EPHEMERIS_TYPE":0,"CLASSIFICATION_TYPE":"U","NORAD_CAT_ID":65693,"ELEMENT_SET_NO":999,"REV_AT_EPOCH":1017,"BSTAR":0.0010454,"MEAN_MOTION_DOT":0.00041645,"MEAN_MOTION_DDOT":0},{"OBJECT_NAME":"STARLINK-35204","OBJECT_ID":"2025-212U","EPOCH":"2025-11-17T22:40:30.140256","MEAN_MOTION":15.30204245,"ECCENTRICITY":7.44e-5,"INCLINATION":53.1572,"RA_OF_ASC_NODE":144.8071,"ARG_OF_PERICENTER":74.8012,"MEAN_ANOMALY":285.3071,"EPHEMERIS_TYPE":0,"CLASSIFICATION_TYPE":"U","NORAD_CAT_ID":65694,"ELEMENT_SET_NO":999,"REV_AT_EPOCH":1014,"BSTAR":0.00090487,"MEAN_MOTION_DOT":0.0002654,"MEAN_MOTION_DDOT":0},{"OBJECT_NAME":"STARLINK-35221","OBJECT_ID":"2025-212V","EPOCH":"2025-11-17T12:47:18.434400","MEAN_MOTION":15.30227874,"ECCENTRICITY":0.00033819,"INCLINATION":53.1518,"RA_OF_ASC_NODE":146.4987,"ARG_OF_PERICENTER":106.4302,"MEAN_ANOMALY":253.707,"EPHEMERIS_TYPE":0,"CLASSIFICATION_TYPE":"U","NORAD_CAT_ID":65695,"ELEMENT_SET_NO":999,"REV_AT_EPOCH":1008,"BSTAR":0.0010528169,"MEAN_MOTION_DOT":0.00030982,"MEAN_MOTION_DDOT":0},{"OBJECT_NAME":"STARLINK-34734","OBJECT_ID":"2025-212W","EPOCH":"2025-11-17T21:53:23.654112","MEAN_MOTION":15.30202576,"ECCENTRICITY":9.85e-5,"INCLINATION":53.1603,"RA_OF_ASC_NODE":144.5997,"ARG_OF_PERICENTER":76.0936,"MEAN_ANOMALY":284.0174,"EPHEMERIS_TYPE":0,"CLASSIFICATION_TYPE":"U","NORAD_CAT_ID":65696,"ELEMENT_SET_NO":999,"REV_AT_EPOCH":1013,"BSTAR":0.0016036,"MEAN_MOTION_DOT":0.00047441,"MEAN_MOTION_DDOT":0},{"OBJECT_NAME":"STARLINK-35113","OBJECT_ID":"2025-212X","EPOCH":"2025-11-17T12:13:52.584960","MEAN_MOTION":15.30218973,"ECCENTRICITY":0.00020527,"INCLINATION":53.1552,"RA_OF_ASC_NODE":146.3522,"ARG_OF_PERICENTER":80.7886,"MEAN_ANOMALY":279.3347,"EPHEMERIS_TYPE":0,"CLASSIFICATION_TYPE":"U","NORAD_CAT_ID":65697,"ELEMENT_SET_NO":999,"REV_AT_EPOCH":1007,"BSTAR":0.0016568804,"MEAN_MOTION_DOT":0.00049067,"MEAN_MOTION_DDOT":0},{"OBJECT_NAME":"STARLINK-35090","OBJECT_ID":"2025-212Y","EPOCH":"2025-11-17T19:24:47.718432","MEAN_MOTION":15.30179496,"ECCENTRICITY":0.0001337,"INCLINATION":53.1609,"RA_OF_ASC_NODE":145.3811,"ARG_OF_PERICENTER":92.168,"MEAN_ANOMALY":267.9474,"EPHEMERIS_TYPE":0,"CLASSIFICATION_TYPE":"U","NORAD_CAT_ID":65698,"ELEMENT_SET_NO":999,"REV_AT_EPOCH":1011,"BSTAR":0.00044154,"MEAN_MOTION_DOT":0.00012732,"MEAN_MOTION_DDOT":0},{"OBJECT_NAME":"STARLINK-35086","OBJECT_ID":"2025-212Z","EPOCH":"2025-11-17T12:12:31.272192","MEAN_MOTION":15.30221039,"ECCENTRICITY":0.00025948,"INCLINATION":53.1586,"RA_OF_ASC_NODE":147.0618,"ARG_OF_PERICENTER":86.7445,"MEAN_ANOMALY":273.3852,"EPHEMERIS_TYPE":0,"CLASSIFICATION_TYPE":"U","NORAD_CAT_ID":65699,"ELEMENT_SET_NO":999,"REV_AT_EPOCH":1001,"BSTAR":0.0010773177,"MEAN_MOTION_DOT":0.00031706,"MEAN_MOTION_DDOT":0},{"OBJECT_NAME":"STARLINK-35101","OBJECT_ID":"2025-212AA","EPOCH":"2025-11-17T15:29:34.768320","MEAN_MOTION":15.3018227,"ECCENTRICITY":5.646e-5,"INCLINATION":53.1607,"RA_OF_ASC_NODE":145.7784,"ARG_OF_PERICENTER":142.3865,"MEAN_ANOMALY":217.7175,"EPHEMERIS_TYPE":0,"CLASSIFICATION_TYPE":"U","NORAD_CAT_ID":65700,"ELEMENT_SET_NO":999,"REV_AT_EPOCH":1004,"BSTAR":0.0010541211,"MEAN_MOTION_DOT":0.00030974,"MEAN_MOTION_DDOT":0},{"OBJECT_NAME":"STARLINK-35046","OBJECT_ID":"2025-212AB","EPOCH":"2025-11-17T22:38:58.861248","MEAN_MOTION":15.30202802,"ECCENTRICITY":7.62e-5,"INCLINATION":53.1586,"RA_OF_ASC_NODE":144.7996,"ARG_OF_PERICENTER":62.2997,"MEAN_ANOMALY":297.8081,"EPHEMERIS_TYPE":0,"CLASSIFICATION_TYPE":"U","NORAD_CAT_ID":65701,"ELEMENT_SET_NO":999,"REV_AT_EPOCH":1013,"BSTAR":0.00094122,"MEAN_MOTION_DOT":0.00027623,"MEAN_MOTION_DDOT":0}]
